GLOBALSTAR M035         
1 25851U 99037A   25308.74482513 -.00000108  00000+0 -16840-2 0  9992
2 25851  51.9920 101.5038 0013298 204.6699 168.4123 11.04540024111791
GLOBALSTAR M032         
1 25852U 99037B   25308.92723625  .00000011  00000+0  24954-2 0  9991
2 25852  51.9952 276.5914 0012773  43.2591 316.9210 11.19065741150545
GLOBALSTAR M051         
1 25853U 99037C   25308.68746704 -.00000060  00000+0  28904-3 0  9993
2 25853  51.9806  61.9473 0001209 114.7288 245.3648 11.42206418148449
GLOBALSTAR M030         
1 25854U 99037D   25308.78869237 -.00000117  00000+0 -90123-3 0  9998
2 25854  51.9868 218.8711 0002956 313.4807  46.5764 11.55112028166291
GLOBALSTAR M048         
1 25872U 99041A   25308.92974765 -.00000058  00000+0  33971-3 0  9993
2 25872  51.9403   1.8422 0013391  69.7531 101.3211 11.33859629140947
GLOBALSTAR M026         
1 25873U 99041B   25308.75452634 -.00000073  00000+0 -31266-3 0  9994
2 25873  51.9998 217.9617 0001853 120.6150 272.6259 11.06850927164051
GLOBALSTAR M043         
1 25874U 99041C   25308.73133421 -.00000080  00000+0 -34944-3 0  9997
2 25874  51.9362 115.5546 0013577 186.0067 186.8498 11.25696490138708
GLOBALSTAR M028         
1 25875U 99041D   25308.81920553 -.00000063  00000+0  24444-3 0  9991
2 25875  51.9596 133.7225 0063593  17.8222 342.4850 12.50591079207773
